[{"OBJECT_NAME":"YAOGAN-14","OBJECT_ID":"2012-021A","EPOCH":"2026-03-09T23:13:16.463424","MEAN_MOTION":15.26486019,"ECCENTRICITY":0.00056417,"INCLINATION":97.2863,"RA_OF_ASC_NODE":208.4378,"ARG_OF_PERICENTER":161.6562,"MEAN_ANOMALY":198.4882,"EPHEMERIS_TYPE":0,"CLASSIFICATION_TYPE":"U","NORAD_CAT_ID":38257,"ELEMENT_SET_NO":999,"REV_AT_EPOCH":77067,"BSTAR":0.00037795498,"MEAN_MOTION_DOT":9.798e-5,"MEAN_MOTION_DDOT":0},{"OBJECT_NAME":"STARLINK-31205","OBJECT_ID":"2024-038Z","EPOCH":"2026-03-09T22:20:46.705632","MEAN_MOTION":15.27579241,"ECCENTRICITY":0.00014319,"INCLINATION":43.0066,"RA_OF_ASC_NODE":22.331,"ARG_OF_PERICENTER":273.5775,"MEAN_ANOMALY":86.4913,"EPHEMERIS_TYPE":0,"CLASSIFICATION_TYPE":"U","NORAD_CAT_ID":59046,"ELEMENT_SET_NO":999,"REV_AT_EPOCH":11483,"BSTAR":-8.5618005e-5,"MEAN_MOTION_DOT":-2.617e-5,"MEAN_MOTION_DDOT":0}]
